[{"OBJECT_NAME":"CHUANGXIN 1 (CX-1)","OBJECT_ID":"2003-049B","EPOCH":"2026-03-09T23:37:11.328096","MEAN_MOTION":14.48529163,"ECCENTRICITY":0.00134088,"INCLINATION":98.5179,"RA_OF_ASC_NODE":327.2835,"ARG_OF_PERICENTER":121.0909,"MEAN_ANOMALY":239.1602,"EPHEMERIS_TYPE":0,"CLASSIFICATION_TYPE":"U","NORAD_CAT_ID":28058,"ELEMENT_SET_NO":999,"REV_AT_EPOCH":18191,"BSTAR":9.8543692e-5,"MEAN_MOTION_DOT":3.25e-6,"MEAN_MOTION_DDOT":0},{"OBJECT_NAME":"UNKNOWN","OBJECT_ID":"","EPOCH":"2026-03-07T08:59:44.573280","MEAN_MOTION":14.33889308,"ECCENTRICITY":0.0060671,"INCLINATION":82.9113,"RA_OF_ASC_NODE":213.1352,"ARG_OF_PERICENTER":251.9407,"MEAN_ANOMALY":107.5167,"EPHEMERIS_TYPE":0,"CLASSIFICATION_TYPE":"U","NORAD_CAT_ID":81844,"ELEMENT_SET_NO":999,"REV_AT_EPOCH":63501,"BSTAR":0.0045611,"MEAN_MOTION_DOT":0.00012997,"MEAN_MOTION_DDOT":0}]
